STARLINK-1470           
1 45772U 20038AU  26068.60892913  .00054678  00000+0  19687-2 0  9990
2 45772  53.0480 174.6971 0002444  12.8687 347.2373 15.28074860317065
STARLINK-31168          
1 58798U 24012M   26068.34540138 -.00002191  00000+0 -70127-4 0  9991
2 58798  43.0023 167.1626 0001104 241.3310 118.7430 15.27572558121184
